{
"type": "FeatureCollection",
"name": "chorvoq",
"crs": { "type": "name", "properties": { "name": "urn:ogc:def:crs:OGC:1.3:CRS84" } },
"features": [
{ "type": "Feature", "properties": { "ADM0_EN": "Chorvoq suv ombori" }, "geometry": { "type": "MultiPolygon", "coordinates": [ [ [ [ 69.887494550671946, 41.664964680237027 ], [ 70.11310849351473, 41.77895287649006 ], [ 70.207463809356426, 41.592197795394071 ], [ 69.981849866513642, 41.478209599141039 ], [ 69.887494550671946, 41.664964680237027 ] ] ] ] } },
{ "type": "Feature", "properties": { "ADM0_EN": "Andijon suv ombori" }, "geometry": { "type": "MultiPolygon", "coordinates": [ [ [ [ 73.041541773405186, 40.778778738517303 ], [ 73.193603266048299, 40.845171784600915 ], [ 73.230429909820387, 40.760826890800345 ], [ 73.078368417177259, 40.694433844716734 ], [ 73.041541773405186, 40.778778738517303 ] ] ] ] } },
{ "type": "Feature", "properties": { "ADM0_EN": "Toʻpolon suv ombori" }, "geometry": { "type": "MultiPolygon", "coordinates": [ [ [ [ 67.801429049476283, 38.716543336914974 ], [ 67.793068452723773, 38.581844833679945 ], [ 67.82642078750564, 38.579774688762448 ], [ 67.83478138425815, 38.714473191997477 ], [ 67.801429049476283, 38.716543336914974 ] ] ] ] } },
{ "type": "Feature", "properties": { "ADM0_EN": "Kattaqoʻrgʻon suv ombori" }, "geometry": { "type": "MultiPolygon", "coordinates": [ [ [ [ 66.163846158855804, 39.886144132780551 ], [ 66.365631837462644, 39.849266060483437 ], [ 66.33859184990024, 39.701311411557072 ], [ 66.136806171293401, 39.738189483854185 ], [ 66.163846158855804, 39.886144132780551 ] ] ] ] } },
{ "type": "Feature", "properties": { "ADM0_EN": "Tuyabugʻiz suv ombori" }, "geometry": { "type": "MultiPolygon", "coordinates": [ [ [ [ 69.307043598186993, 41.003994911962913 ], [ 69.399856836409427, 40.954678306834822 ], [ 69.379368641753729, 40.916119779004539 ], [ 69.286555403531295, 40.96543638413263 ], [ 69.307043598186993, 41.003994911962913 ] ] ] ] } },
{ "type": "Feature", "properties": { "ADM0_EN": "Ohangaron suv ombori" }, "geometry": { "type": "MultiPolygon", "coordinates": [ [ [ [ 70.200014881607743, 41.061097382223018 ], [ 70.303962666792529, 41.082654735400546 ], [ 70.307534401923931, 41.065432122164168 ], [ 70.203586616739145, 41.04387476898664 ], [ 70.200014881607743, 41.061097382223018 ] ] ] ] } },
{ "type": "Feature", "properties": { "ADM0_EN": "Hisorak suv ombori" }, "geometry": { "type": "MultiPolygon", "coordinates": [ [ [ [ 67.149156696412234, 39.03018106698778 ], [ 67.230956516003673, 39.016744634527811 ], [ 67.228207434975261, 39.000008470904326 ], [ 67.146407615383822, 39.013444903364295 ], [ 67.149156696412234, 39.03018106698778 ] ] ] ] } },
{ "type": "Feature", "properties": { "ADM0_EN": "Pachkamar suv ombori" }, "geometry": { "type": "MultiPolygon", "coordinates": [ [ [ [ 66.391962253708414, 38.542507802398731 ], [ 66.422083486915369, 38.536380198584574 ], [ 66.418522716130767, 38.518876650631341 ], [ 66.388401482923811, 38.525004254445498 ], [ 66.391962253708414, 38.542507802398731 ] ] ] ] } },
{ "type": "Feature", "properties": { "ADM0_EN": "Chimqoʻrgʻon suv ombori" }, "geometry": { "type": "MultiPolygon", "coordinates": [ [ [ [ 66.354262004810678, 38.961924056735285 ], [ 66.412277741334961, 38.97120657457917 ], [ 66.418000413159803, 38.93543987567395 ], [ 66.359984676635506, 38.926157357830064 ], [ 66.354262004810678, 38.961924056735285 ] ] ] ] } },
{ "type": "Feature", "properties": { "ADM0_EN": "Sardoba suv ombori" }, "geometry": { "type": "MultiPolygon", "coordinates": [ [ [ [ 68.417820021724324, 40.382013106663265 ], [ 68.511727395840126, 40.381422494247445 ], [ 68.511278117381892, 40.309987219388056 ], [ 68.41737074326609, 40.310577831803876 ], [ 68.417820021724324, 40.382013106663265 ] ] ] ] } }
]
}
