{"type":"FeatureCollection","name":"chorvoq","crs":{"type":"name","properties":{"name":"urn:ogc:def:crs:OGC:1.3:CRS84"}},"features":[{"type":"Feature","properties":{"ADM0_EN":"111","ADM0_RU":null,"ADM0_UZ":null,"ADM0ALT1EN":null,"ADM0_PCODE":null,"ADM1_EN":null,"ADM1_RU":null,"ADM1_UZ":null,"ADM1TYPE_E":null,"ADM1TYPE_R":null,"ADM1TYPE_U":null,"ADM1_PCODE":null,"ADM2_EN":null,"ADM2_RU":null,"ADM2_UZ":null,"ADM2TYPERU":null,"ADM2TYPEUZ":null,"ADM2TYPEEN":null,"ADM2_PCODE":null},"geometry":{"type":"MultiPolygon","coordinates":[[[[69.88749455067195,41.66496468023703],[70.11310849351473,41.77895287649006],[70.20746380935643,41.59219779539407],[69.98184986651364,41.47820959914104],[69.88749455067195,41.66496468023703]]]]}}]}